NORAD_CAT_ID,OBJECT_NAME,OBJECT_TYPE,EPOCH,MEAN_MOTION,ECCENTRICITY,INCLINATION,RA_OF_ASC_NODE,ARG_OF_PERICENTER,MEAN_ANOMALY,BSTAR,MEAN_MOTION_DOT,MEAN_MOTION_DDOT,TLE_LINE0,TLE_LINE1,TLE_LINE2,SEMIMAJOR_AXIS,PERIOD,APOGEE,PERIGEE,DECAYED
54077.0,STARLINK-5171,PAYLOAD,2023-10-01 12:27:54,15.08849681,0.0001438,53.2177,359.9276,86.0544,274.0612,0.00015616,2.199e-05,0.0,0 STARLINK-5171,1 54077U 22136AC  23274.51937694  .00002199  00000-0  15616-3 0  9992,2 54077  53.2177 359.9276 0001438  86.0544 274.0612 15.08849681 53228,6917.851,95.437,540.711,538.721,0.0
54077.0,STARLINK-5171,PAYLOAD,2023-10-01 15:38:40,15.08853734,0.0001506,53.2177,359.3323,88.5691,271.5473,0.00023086,3.389e-05,0.0,0 STARLINK-5171,1 54077U 22136AC  23274.65185490  .00003389  00000-0  23086-3 0  9998,2 54077  53.2177 359.3323 0001506  88.5691 271.5473 15.08853734 52760,6917.838,95.437,540.745,538.662,0.0
54077.0,STARLINK-5171,PAYLOAD,2023-10-02 12:18:42,15.08834124,0.0001507,53.2177,355.4676,89.3427,270.7737,2.5646e-06,-2.47e-06,0.0,0 STARLINK-5171,1 54077U 22136AC  23275.51298676 -.00000247  00000-0  25646-5 0  9992,2 54077  53.2177 355.4676 0001507  89.3427 270.7737 15.08834124 53379,6917.898,95.438,540.806,538.721,0.0
54077.0,STARLINK-5171,PAYLOAD,2023-10-03 12:09:28,15.08854946,0.0001294,53.2174,351.0066,87.2929,272.8211,0.000981,0.00015365,0.0,0 STARLINK-5171,1 54077U 22136AC  23276.50658423  .00015365  00000-0  98100-3 0  9991,2 54077  53.2174 351.0066 0001294  87.2929 272.8211 15.08854946 53529,6917.835,95.437,540.595,538.805,0.0
54077.0,STARLINK-5171,PAYLOAD,2023-10-04 10:24:52,15.08852889,0.0001396,53.2174,346.8449,99.4421,260.6729,0.00043133,6.586e-05,0.0,0 STARLINK-5171,1 54077U 22136AC  23277.43394424  .00006586  00000-0  43133-3 0  9993,2 54077  53.2174 346.8449 0001396  99.4421 260.6729 15.08852889 53669,6917.841,95.437,540.672,538.74,0.0
54077.0,STARLINK-5171,PAYLOAD,2023-10-04 12:00:15,15.08861211,0.0001356,53.2174,346.5476,98.9085,261.206,0.00066861,0.00010375,0.0,0 STARLINK-5171,1 54077U 22136AC  23277.50018309  .00010375  00000-0  66861-3 0  9990,2 54077  53.2174 346.5476 0001356  98.9085 261.2060 15.08861211 53194,6917.816,95.436,540.619,538.743,0.0
54077.0,STARLINK-5171,PAYLOAD,2023-10-04 21:32:34,15.08853998,0.0001407,53.2175,344.7639,86.8829,273.2324,0.00036065,5.459e-05,0.0,0 STARLINK-5171,1 54077U 22136AC  23277.89762064  .00005459  00000-0  36065-3 0  9996,2 54077  53.2175 344.7639 0001407  86.8829 273.2324 15.08853998 53251,6917.838,95.437,540.676,538.729,0.0
54077.0,STARLINK-5171,PAYLOAD,2023-10-05 10:15:39,15.08837649,0.0001566,53.2177,342.3855,83.8445,276.2725,0.00071621,0.00011128,0.0,0 STARLINK-5171,1 54077U 22136AC  23278.42754629  .00011128  00000-0  71621-3 0  9991,2 54077  53.2177 342.3855 0001566  83.8445 276.2725 15.08837649 53819,6917.888,95.438,540.836,538.669,0.0
54077.0,STARLINK-5171,PAYLOAD,2023-10-05 13:26:26,15.08845167,0.0001687,53.2166,341.7902,84.234,275.8845,0.00096864,0.00015164,0.0,0 STARLINK-5171,1 54077U 22136AC  23278.56002582  .00015164  00000-0  96864-3 0  9990,2 54077  53.2166 341.7902 0001687  84.2340 275.8845 15.08845167 53357,6917.865,95.437,540.897,538.563,0.0
54077.0,STARLINK-5171,PAYLOAD,2023-10-06 10:06:27,15.08840093,0.0001574,53.2171,337.924,94.5959,265.5213,0.00049726,7.635e-05,0.0,0 STARLINK-5171,1 54077U 22136AC  23279.42115103  .00007635  00000-0  49726-3 0  9999,2 54077  53.2171 337.9240 0001574  94.5959 265.5213 15.08840093 53965,6917.88,95.438,540.834,538.656,0.0
54077.0,STARLINK-5171,PAYLOAD,2023-10-06 11:41:50,15.08845126,0.0001588,53.2173,337.6269,84.4235,275.6938,0.00073502,0.00011431,0.0,0 STARLINK-5171,1 54077U 22136AC  23279.48739130  .00011431  00000-0  73502-3 0  9995,2 54077  53.2173 337.6269 0001588  84.4235 275.6938 15.08845126 53491,6917.865,95.437,540.828,538.631,0.0
54077.0,STARLINK-5171,PAYLOAD,2023-10-06 21:14:09,15.0884111,0.0001815,53.2175,335.8432,76.348,283.7714,0.00055024,8.48e-05,0.0,0 STARLINK-5171,1 54077U 22136AC  23279.88483437  .00008480  00000-0  55024-3 0  9994,2 54077  53.2175 335.8432 0001815  76.3480 283.7714 15.08841110 53558,6917.877,95.437,540.998,538.486,0.0
54077.0,STARLINK-5171,PAYLOAD,2023-10-07 09:57:14,15.08847093,0.0001642,53.2165,333.4629,82.9662,277.1517,0.00053383,8.22e-05,0.0,0 STARLINK-5171,1 54077U 22136AC  23280.41475266  .00008220  00000-0  53383-3 0  9994,2 54077  53.2165 333.4629 0001642  82.9662 277.1517 15.08847093 53635,6917.859,95.437,540.86,538.588,0.0
54077.0,STARLINK-5171,PAYLOAD,2023-10-08 09:48:01,15.08847763,0.0001693,53.2171,329.0023,94.4193,265.6992,0.00027853,4.148e-05,0.0,0 STARLINK-5171,1 54077U 22136AC  23281.40835046  .00004148  00000-0  27853-3 0  9998,2 54077  53.2171 329.0023 0001693  94.4193 265.6992 15.08847763 54267,6917.857,95.437,540.893,538.55,0.0
54077.0,STARLINK-5171,PAYLOAD,2023-10-08 12:58:47,15.08852153,0.0001743,53.2169,328.4072,93.366,266.7532,0.00034885,5.27e-05,0.0,0 STARLINK-5171,1 54077U 22136AC  23281.54082951  .00005270  00000-0  34885-3 0  9992,2 54077  53.2169 328.4072 0001743  93.3660 266.7532 15.08852153 53804,6917.843,95.437,540.914,538.502,0.0
54077.0,STARLINK-5171,PAYLOAD,2023-10-09 03:17:16,15.08840963,0.0001469,53.2159,325.7306,88.6709,271.4451,9.4451e-05,1.216e-05,0.0,0 STARLINK-5171,1 54077U 22136AC  23282.13699336  .00001216  00000-0  94451-4 0  9991,2 54077  53.2159 325.7306 0001469  88.6709 271.4451 15.08840963 54371,6917.877,95.437,540.759,538.726,0.0
54077.0,STARLINK-5171,PAYLOAD,2023-10-09 09:38:48,15.08851972,0.0001517,53.2163,324.5417,87.9956,272.121,0.00031134,4.672e-05,0.0,0 STARLINK-5171,1 54077U 22136AC  23282.40194885  .00004672  00000-0  31134-3 0  9997,2 54077  53.2163 324.5417 0001517  87.9956 272.1210 15.08851972 54414,6917.844,95.437,540.758,538.659,0.0
54077.0,STARLINK-5171,PAYLOAD,2023-10-10 03:08:02,15.08846879,0.0001573,53.2173,321.2692,87.1291,272.9881,0.00022203,3.248e-05,0.0,0 STARLINK-5171,1 54077U 22136AC  23283.13059025  .00003248  00000-0  22203-3 0  9999,2 54077  53.2173 321.2692 0001573  87.1291 272.9881 15.08846879 54524,6917.859,95.437,540.813,538.636,0.0
54077.0,STARLINK-5171,PAYLOAD,2023-10-10 09:29:35,15.0884893,0.0001551,53.2173,320.0784,88.3529,271.764,0.00028067,4.183e-05,0.0,0 STARLINK-5171,1 54077U 22136AC  23283.39554893  .00004183  00000-0  28067-3 0  9993,2 54077  53.2173 320.0784 0001551  88.3529 271.7640 15.08848930 54087,6917.853,95.437,540.791,538.645,0.0
54077.0,STARLINK-5171,PAYLOAD,2023-10-11 02:58:50,15.08834256,0.0001714,53.2177,316.8127,96.0059,264.1128,-4.6358e-05,-1.026e-05,0.0,0 STARLINK-5171,1 54077U 22136AC  23284.12419602 -.00001026  00000-0 -46358-4 0  9992,2 54077  53.2177 316.8127 0001714  96.0059 264.1128 15.08834256 54678,6917.898,95.438,540.949,538.577,0.0
54077.0,STARLINK-5171,PAYLOAD,2023-10-11 09:20:23,15.08835848,0.0001541,53.2176,315.623,95.0181,265.0987,6.3348e-06,-1.87e-06,0.0,0 STARLINK-5171,1 54077U 22136AC  23284.38915817 -.00000187  00000-0  63348-5 0  9994,2 54077  53.2176 315.6230 0001541  95.0181 265.0987 15.08835848 54235,6917.893,95.438,540.824,538.692,0.0
54077.0,STARLINK-5171,PAYLOAD,2023-10-12 09:11:10,15.08843616,0.0001633,53.2172,311.1637,100.9483,259.1693,0.00028409,4.237e-05,0.0,0 STARLINK-5171,1 54077U 22136AC  23285.38275936  .00004237  00000-0  28409-3 0  9992,2 54077  53.2172 311.1637 0001633 100.9483 259.1693 15.08843616 54382,6917.869,95.437,540.864,538.605,0.0
54077.0,STARLINK-5171,PAYLOAD,2023-10-12 18:43:29,15.0884526,0.0001403,53.2163,309.378,87.1034,273.0118,0.00029916,4.477e-05,0.0,0 STARLINK-5171,1 54077U 22136AC  23285.78019826  .00004477  00000-0  29916-3 0  9990,2 54077  53.2163 309.3780 0001403  87.1034 273.0118 15.08845260 54927,6917.864,95.437,540.7,538.759,0.0
54077.0,STARLINK-5171,PAYLOAD,2023-10-13 10:37:20,15.08843781,0.0001746,53.2172,306.4046,83.6105,276.5085,0.00020852,3.032e-05,0.0,0 STARLINK-5171,1 54077U 22136AC  23286.44260073  .00003032  00000-0  20852-3 0  9992,2 54077  53.2172 306.4046 0001746  83.6105 276.5085 15.08843781 55029,6917.869,95.437,540.942,538.526,0.0
54077.0,STARLINK-5171,PAYLOAD,2023-10-13 18:34:16,15.08841791,0.000166,53.2171,304.9177,89.1872,270.931,0.00013842,1.916e-05,0.0,0 STARLINK-5171,1 54077U 22136AC  23286.77380141  .00001916  00000-0  13842-3 0  9997,2 54077  53.2171 304.9177 0001660  89.1872 270.9310 15.08841791 54592,6917.875,95.437,540.888,538.592,0.0
54077.0,STARLINK-5171,PAYLOAD,2023-10-14 08:52:43,15.08854383,0.0001601,53.2163,302.2411,90.002,270.1155,0.00020538,2.983e-05,0.0,0 STARLINK-5171,1 54077U 22136AC  23287.36995320  .00002983  00000-0  20538-3 0  9999,2 54077  53.2163 302.2411 0001601  90.0020 270.1155 15.08854383 54686,6917.836,95.437,540.809,538.594,0.0
54077.0,STARLINK-5171,PAYLOAD,2023-10-14 18:25:03,15.08842238,0.0002009,53.2173,300.4591,78.4207,281.7011,2.8747e-05,1.69e-06,0.0,0 STARLINK-5171,1 54077U 22136AC  23287.76740058  .00000169  00000-0  28747-4 0  9994,2 54077  53.2173 300.4591 0002009  78.4207 281.7011 15.08842238 55222,6917.874,95.437,541.128,538.349,0.0
54077.0,STARLINK-5171,PAYLOAD,2023-10-15 00:46:36,15.08834759,0.0001973,53.2168,299.2687,85.1502,274.9716,1.8041e-06,-2.59e-06,0.0,0 STARLINK-5171,1 54077U 22136AC  23288.03236500 -.00000259  00000-0  18041-5 0  9995,2 54077  53.2168 299.2687 0001973  85.1502 274.9716 15.08834759 55268,6917.896,95.438,541.126,538.397,0.0
54077.0,STARLINK-5171,PAYLOAD,2023-10-15 07:08:09,15.08826921,0.0001458,53.2166,298.0774,90.9635,269.1524,-0.00016503,-2.912e-05,0.0,0 STARLINK-5171,1 54077U 22136AC  23288.29732915 -.00002912  00000-0 -16503-3 0  9992,2 54077  53.2166 298.0774 0001458  90.9635 269.1524 15.08826921 55309,6917.92,95.438,540.794,538.777,0.0
54077.0,STARLINK-5171,PAYLOAD,2023-10-15 18:15:51,15.08833765,0.0001594,53.218,295.9944,97.3094,262.8079,9.2905e-06,-1.4e-06,0.0,0 STARLINK-5171,1 54077U 22136AC  23288.76100888 -.00000140  00000-0  92905-5 0  9994,2 54077  53.2180 295.9944 0001594  97.3094 262.8079 15.08833765 55377,6917.899,95.438,540.867,538.662,0.0
